{
  "type": "FeatureCollection",
  "features": [
    {
      "type": "Feature",
      "properties": {
        "norad_id": 40938,
        "name": "BEIDOU-3S IGSO-2S (C56)",
        "group": "gnss",
        "lat": -33.53806816706768,
        "lon": 115.41775555713932,
        "alt_km": 35586.78938875523,
        "timestamp": "2025-12-11T20:41:15.324254+00:00",
        "meta_object_name": "BEIDOU-3S IGSO-2S (C56)",
        "meta_object_id": "2015-053A",
        "meta_epoch": "2025-12-11T15:51:33.442272",
        "meta_mean_motion": 1.00269978,
        "meta_eccentricity": 0.00610213,
        "meta_inclination": 49.5121,
        "meta_ra_of_asc_node": 261.0178,
        "meta_arg_of_pericenter": 188.8493,
        "meta_mean_anomaly": 324.6689,
        "meta_ephemeris_type": 0,
        "meta_classification_type": "U",
        "meta_norad_cat_id": 40938,
        "meta_element_set_no": 999,
        "meta_rev_at_epoch": 3747,
        "meta_bstar": 0,
        "meta_mean_motion_dot": -1.57e-06,
        "meta_mean_motion_ddot": 0,
        "tle_line1": "1 40938U 15053A   25345.66080373 -.00000157  00000+0  00000+0 0  9992",
        "tle_line2": "2 40938  49.5121 261.0178 0061021 188.8493 324.6689  1.00269978 37475"
      },
      "geometry": {
        "type": "Point",
        "coordinates": [
          115.41775555713932,
          -33.53806816706768
        ]
      }
    },
    {
      "type": "Feature",
      "properties": {
        "norad_id": 41019,
        "name": "GPS BIIF-11 (PRN 10)",
        "group": "gnss",
        "lat": 28.61234740521851,
        "lon": 58.934785465282516,
        "alt_km": 20462.958369961543,
        "timestamp": "2025-12-11T20:41:15.324265+00:00",
        "meta_object_name": "GPS BIIF-11 (PRN 10)",
        "meta_object_id": "2015-062A",
        "meta_epoch": "2025-12-11T07:32:26.435904",
        "meta_mean_motion": 2.00567124,
        "meta_eccentricity": 0.01107874,
        "meta_inclination": 56.8311,
        "meta_ra_of_asc_node": 38.0574,
        "meta_arg_of_pericenter": 229.9047,
        "meta_mean_anomaly": 129.1688,
        "meta_ephemeris_type": 0,
        "meta_classification_type": "U",
        "meta_norad_cat_id": 41019,
        "meta_element_set_no": 999,
        "meta_rev_at_epoch": 7406,
        "meta_bstar": 0,
        "meta_mean_motion_dot": -9.3e-07,
        "meta_mean_motion_ddot": 0,
        "tle_line1": "1 41019U 15062A   25345.31419486 -.00000093  00000+0  00000+0 0  9995",
        "tle_line2": "2 41019  56.8311  38.0574 0110787 229.9047 129.1688  2.00567124 74064"
      },
      "geometry": {
        "type": "Point",
        "coordinates": [
          58.934785465282516,
          28.61234740521851
        ]
      }
    },
    {
      "type": "Feature",
      "properties": {
        "norad_id": 41028,
        "name": "GSAT-15 (GAGAN/PRN 139)",
        "group": "gnss",
        "lat": -0.02031295417940577,
        "lon": 124.59241468588966,
        "alt_km": 35789.119192578386,
        "timestamp": "2025-12-11T20:41:15.324278+00:00",
        "meta_object_name": "GSAT-15 (GAGAN/PRN 139)",
        "meta_object_id": "2015-065A",
        "meta_epoch": "2025-12-10T21:41:05.996832",
        "meta_mean_motion": 1.00272628,
        "meta_eccentricity": 0.0003038,
        "meta_inclination": 0.05,
        "meta_ra_of_asc_node": 266.153,
        "meta_arg_of_pericenter": 322.572,
        "meta_mean_anomaly": 269.9198,
        "meta_ephemeris_type": 0,
        "meta_classification_type": "U",
        "meta_norad_cat_id": 41028,
        "meta_element_set_no": 999,
        "meta_rev_at_epoch": 3691,
        "meta_bstar": 0,
        "meta_mean_motion_dot": -2.53e-06,
        "meta_mean_motion_ddot": 0,
        "tle_line1": "1 41028U 15065A   25344.90354163 -.00000253  00000+0  00000+0 0  9990",
        "tle_line2": "2 41028   0.0500 266.1530 0003038 322.5720 269.9198  1.00272628 36911"
      },
      "geometry": {
        "type": "Point",
        "coordinates": [
          124.59241468588966,
          -0.02031295417940577
        ]
      }
    },
    {
      "type": "Feature",
      "properties": {
        "norad_id": 41174,
        "name": "GSAT0209 (GALILEO 12)",
        "group": "gnss",
        "lat": -28.090176577336567,
        "lon": 85.05944319364545,
        "alt_km": 23219.356256037165,
        "timestamp": "2025-12-11T20:41:15.324290+00:00",
        "meta_object_name": "GSAT0209 (GALILEO 12)",
        "meta_object_id": "2015-079A",
        "meta_epoch": "2025-12-10T17:53:22.611840",
        "meta_mean_motion": 1.70474458,
        "meta_eccentricity": 0.00024095,
        "meta_inclination": 55.7117,
        "meta_ra_of_asc_node": 106.4357,
        "meta_arg_of_pericenter": 351.4479,
        "meta_mean_anomaly": 8.5179,
        "meta_ephemeris_type": 0,
        "meta_classification_type": "U",
        "meta_norad_cat_id": 41174,
        "meta_element_set_no": 999,
        "meta_rev_at_epoch": 6156,
        "meta_bstar": 0,
        "meta_mean_motion_dot": 1.1e-07,
        "meta_mean_motion_ddot": 0,
        "tle_line1": "1 41174U 15079A   25344.74540060  .00000011  00000+0  00000+0 0  9993",
        "tle_line2": "2 41174  55.7117 106.4357 0002409 351.4479   8.5179  1.70474458 61567"
      },
      "geometry": {
        "type": "Point",
        "coordinates": [
          85.05944319364545,
          -28.090176577336567
        ]
      }
    },
    {
      "type": "Feature",
      "properties": {
        "norad_id": 41175,
        "name": "GSAT0208 (GALILEO 11)",
        "group": "gnss",
        "lat": -8.413045506388125,
        "lon": -67.82187360800586,
        "alt_km": 23228.979885485413,
        "timestamp": "2025-12-11T20:41:15.324301+00:00",
        "meta_object_name": "GSAT0208 (GALILEO 11)",
        "meta_object_id": "2015-079B",
        "meta_epoch": "2025-12-08T14:51:40.201056",
        "meta_mean_motion": 1.70474231,
        "meta_eccentricity": 0.0001859,
        "meta_inclination": 55.7088,
        "meta_ra_of_asc_node": 106.4912,
        "meta_arg_of_pericenter": 3.1611,
        "meta_mean_anomaly": 356.8026,
        "meta_ephemeris_type": 0,
        "meta_classification_type": "U",
        "meta_norad_cat_id": 41175,
        "meta_element_set_no": 999,
        "meta_rev_at_epoch": 6194,
        "meta_bstar": 0,
        "meta_mean_motion_dot": 1e-07,
        "meta_mean_motion_ddot": 0,
        "tle_line1": "1 41175U 15079B   25342.61921529  .00000010  00000+0  00000+0 0  9990",
        "tle_line2": "2 41175  55.7088 106.4912 0001859   3.1611 356.8026  1.70474231 61940"
      },
      "geometry": {
        "type": "Point",
        "coordinates": [
          -67.82187360800586,
          -8.413045506388125
        ]
      }
    },
    {
      "type": "Feature",
      "properties": {
        "norad_id": 41241,
        "name": "IRNSS-1E",
        "group": "gnss",
        "lat": 32.31083998593101,
        "lon": 140.8890897350528,
        "alt_km": 35808.302965755625,
        "timestamp": "2025-12-11T20:41:15.324312+00:00",
        "meta_object_name": "IRNSS-1E",
        "meta_object_id": "2016-003A",
        "meta_epoch": "2025-12-11T16:00:36.417888",
        "meta_mean_motion": 1.00274353,
        "meta_eccentricity": 0.00218711,
        "meta_inclination": 32.823,
        "meta_ra_of_asc_node": 62.4692,
        "meta_arg_of_pericenter": 187.0713,
        "meta_mean_anomaly": 183.0302,
        "meta_ephemeris_type": 0,
        "meta_classification_type": "U",
        "meta_norad_cat_id": 41241,
        "meta_element_set_no": 999,
        "meta_rev_at_epoch": 3620,
        "meta_bstar": 0,
        "meta_mean_motion_dot": -3.05e-06,
        "meta_mean_motion_ddot": 0,
        "tle_line1": "1 41241U 16003A   25345.66708817 -.00000305  00000+0  00000+0 0  9991",
        "tle_line2": "2 41241  32.8230  62.4692 0021871 187.0713 183.0302  1.00274353 36200"
      },
      "geometry": {
        "type": "Point",
        "coordinates": [
          140.8890897350528,
          32.31083998593101
        ]
      }
    },
    {
      "type": "Feature",
      "properties": {
        "norad_id": 41328,
        "name": "GPS BIIF-12 (PRN 32)",
        "group": "gnss",
        "lat": -19.504483202160955,
        "lon": 82.75137055356706,
        "alt_km": 20194.0458664871,
        "timestamp": "2025-12-11T20:41:15.324323+00:00",
        "meta_object_name": "GPS BIIF-12 (PRN 32)",
        "meta_object_id": "2016-007A",
        "meta_epoch": "2025-12-10T21:33:15.579936",
        "meta_mean_motion": 2.00560768,
        "meta_eccentricity": 0.0092092,
        "meta_inclination": 55.4051,
        "meta_ra_of_asc_node": 96.9301,
        "meta_arg_of_pericenter": 243.5329,
        "meta_mean_anomaly": 115.5097,
        "meta_ephemeris_type": 0,
        "meta_classification_type": "U",
        "meta_norad_cat_id": 41328,
        "meta_element_set_no": 999,
        "meta_rev_at_epoch": 7206,
        "meta_bstar": 0,
        "meta_mean_motion_dot": 1e-08,
        "meta_mean_motion_ddot": 0,
        "tle_line1": "1 41328U 16007A   25344.89809699  .00000001  00000+0  00000+0 0  9997",
        "tle_line2": "2 41328  55.4051  96.9301 0092092 243.5329 115.5097  2.00560768 72065"
      },
      "geometry": {
        "type": "Point",
        "coordinates": [
          82.75137055356706,
          -19.504483202160955
        ]
      }
    }
  ]
}